{
  "type": "FeatureCollection",
  "features": [
    {
      "type": "Feature",
      "properties": {
        "norad_id": 35243,
        "name": "FENGYUN 1C DEB",
        "group": "fengyun-1c-debris",
        "lat": -63.26961961710472,
        "lon": -130.79981486135506,
        "alt_km": 568.6844040926117,
        "timestamp": "2025-12-14T05:42:18.748251+00:00",
        "meta_object_name": "FENGYUN 1C DEB",
        "meta_object_id": "1999-025DRB",
        "meta_epoch": "2025-12-13T10:50:27.200544",
        "meta_mean_motion": 14.87024472,
        "meta_eccentricity": 0.00657869,
        "meta_inclination": 98.8807,
        "meta_ra_of_asc_node": 66.4096,
        "meta_arg_of_pericenter": 254.8118,
        "meta_mean_anomaly": 104.5813,
        "meta_ephemeris_type": 0,
        "meta_classification_type": "U",
        "meta_norad_cat_id": 35243,
        "meta_element_set_no": 999,
        "meta_rev_at_epoch": 91011,
        "meta_bstar": 0.004346126,
        "meta_mean_motion_dot": 0.00040663,
        "meta_mean_motion_ddot": 0,
        "tle_line1": "1 35243U 99025DRB 25347.45170371  .00040663  00000+0  43461-2 0  9999",
        "tle_line2": "2 35243  98.8807  66.4096 0065786 254.8118 104.5813 14.87024472910114"
      },
      "geometry": {
        "type": "Point",
        "coordinates": [
          -130.79981486135506,
          -63.26961961710472
        ]
      }
    },
    {
      "type": "Feature",
      "properties": {
        "norad_id": 35244,
        "name": "FENGYUN 1C DEB",
        "group": "fengyun-1c-debris",
        "lat": 24.501045991168187,
        "lon": -147.51090649634583,
        "alt_km": 817.9610548190722,
        "timestamp": "2025-12-14T05:42:18.748261+00:00",
        "meta_object_name": "FENGYUN 1C DEB",
        "meta_object_id": "1999-025DRC",
        "meta_epoch": "2025-12-13T08:29:10.647744",
        "meta_mean_motion": 14.066296,
        "meta_eccentricity": 0.00720734,
        "meta_inclination": 98.8405,
        "meta_ra_of_asc_node": 27.558,
        "meta_arg_of_pericenter": 155.6756,
        "meta_mean_anomaly": 204.7842,
        "meta_ephemeris_type": 0,
        "meta_classification_type": "U",
        "meta_norad_cat_id": 35244,
        "meta_element_set_no": 999,
        "meta_rev_at_epoch": 65830,
        "meta_bstar": 0.00074383914,
        "meta_mean_motion_dot": 1.22e-05,
        "meta_mean_motion_ddot": 0,
        "tle_line1": "1 35244U 99025DRC 25347.35359546  .00001220  00000+0  74384-3 0  9997",
        "tle_line2": "2 35244  98.8405  27.5580 0072073 155.6756 204.7842 14.06629600658308"
      },
      "geometry": {
        "type": "Point",
        "coordinates": [
          -147.51090649634583,
          24.501045991168187
        ]
      }
    },
    {
      "type": "Feature",
      "properties": {
        "norad_id": 35245,
        "name": "FENGYUN 1C DEB",
        "group": "fengyun-1c-debris",
        "lat": 80.20567711457883,
        "lon": 5.840322862337195,
        "alt_km": 883.9420678274855,
        "timestamp": "2025-12-14T05:42:18.748272+00:00",
        "meta_object_name": "FENGYUN 1C DEB",
        "meta_object_id": "1999-025DRD",
        "meta_epoch": "2025-12-11T11:18:58.055328",
        "meta_mean_motion": 14.13077902,
        "meta_eccentricity": 0.0058998,
        "meta_inclination": 99.0839,
        "meta_ra_of_asc_node": 70.9715,
        "meta_arg_of_pericenter": 274.0194,
        "meta_mean_anomaly": 148.0022,
        "meta_ephemeris_type": 0,
        "meta_classification_type": "U",
        "meta_norad_cat_id": 35245,
        "meta_element_set_no": 999,
        "meta_rev_at_epoch": 87759,
        "meta_bstar": 0.0032686683,
        "meta_mean_motion_dot": 6.164e-05,
        "meta_mean_motion_ddot": 0,
        "tle_line1": "1 35245U 99025DRD 25345.47150527  .00006164  00000+0  32687-2 0  9998",
        "tle_line2": "2 35245  99.0839  70.9715 0058998 274.0194 148.0022 14.13077902877591"
      },
      "geometry": {
        "type": "Point",
        "coordinates": [
          5.840322862337195,
          80.20567711457883
        ]
      }
    },
    {
      "type": "Feature",
      "properties": {
        "norad_id": 36147,
        "name": "FENGYUN 1C DEB",
        "group": "fengyun-1c-debris",
        "lat": 56.750294670688874,
        "lon": -110.51235122684511,
        "alt_km": 1312.888438428654,
        "timestamp": "2025-12-14T05:42:18.748282+00:00",
        "meta_object_name": "FENGYUN 1C DEB",
        "meta_object_id": "1999-025DRU",
        "meta_epoch": "2025-12-06T11:35:31.438464",
        "meta_mean_motion": 13.46487115,
        "meta_eccentricity": 0.04411963,
        "meta_inclination": 98.5268,
        "meta_ra_of_asc_node": 49.6332,
        "meta_arg_of_pericenter": 279.0005,
        "meta_mean_anomaly": 76.1459,
        "meta_ephemeris_type": 0,
        "meta_classification_type": "U",
        "meta_norad_cat_id": 36147,
        "meta_element_set_no": 999,
        "meta_rev_at_epoch": 59913,
        "meta_bstar": 0.0028331014,
        "meta_mean_motion_dot": 3.048e-05,
        "meta_mean_motion_ddot": 0,
        "tle_line1": "1 36147U 99025DRU 25340.48300276  .00003048  00000+0  28331-2 0  9993",
        "tle_line2": "2 36147  98.5268  49.6332 0441196 279.0005  76.1459 13.46487115599135"
      },
      "geometry": {
        "type": "Point",
        "coordinates": [
          -110.51235122684511,
          56.750294670688874
        ]
      }
    },
    {
      "type": "Feature",
      "properties": {
        "norad_id": 36148,
        "name": "FENGYUN 1C DEB",
        "group": "fengyun-1c-debris",
        "lat": -75.67325471805908,
        "lon": -125.64684129245981,
        "alt_km": 857.0905537293074,
        "timestamp": "2025-12-14T05:42:18.748293+00:00",
        "meta_object_name": "FENGYUN 1C DEB",
        "meta_object_id": "1999-025DRV",
        "meta_epoch": "2025-12-12T07:15:07.380864",
        "meta_mean_motion": 13.84931701,
        "meta_eccentricity": 0.02856017,
        "meta_inclination": 98.423,
        "meta_ra_of_asc_node": 197.1506,
        "meta_arg_of_pericenter": 350.9323,
        "meta_mean_anomaly": 8.674,
        "meta_ephemeris_type": 0,
        "meta_classification_type": "U",
        "meta_norad_cat_id": 36148,
        "meta_element_set_no": 999,
        "meta_rev_at_epoch": 90238,
        "meta_bstar": 0.0049616473,
        "meta_mean_motion_dot": 7.666e-05,
        "meta_mean_motion_ddot": 0,
        "tle_line1": "1 36148U 99025DRV 25346.30216876  .00007666  00000+0  49616-2 0  9992",
        "tle_line2": "2 36148  98.4230 197.1506 0285601 350.9323   8.6740 13.84931701902380"
      },
      "geometry": {
        "type": "Point",
        "coordinates": [
          -125.64684129245981,
          -75.67325471805908
        ]
      }
    },
    {
      "type": "Feature",
      "properties": {
        "norad_id": 36152,
        "name": "FENGYUN 1C DEB",
        "group": "fengyun-1c-debris",
        "lat": -81.23765599530432,
        "lon": 118.77662657328028,
        "alt_km": 823.1745738269929,
        "timestamp": "2025-12-14T05:42:18.748303+00:00",
        "meta_object_name": "FENGYUN 1C DEB",
        "meta_object_id": "1999-025DRZ",
        "meta_epoch": "2025-12-12T20:14:37.132512",
        "meta_mean_motion": 14.17249367,
        "meta_eccentricity": 0.00553782,
        "meta_inclination": 98.7561,
        "meta_ra_of_asc_node": 26.6399,
        "meta_arg_of_pericenter": 211.6512,
        "meta_mean_anomaly": 148.1329,
        "meta_ephemeris_type": 0,
        "meta_classification_type": "U",
        "meta_norad_cat_id": 36152,
        "meta_element_set_no": 999,
        "meta_rev_at_epoch": 64158,
        "meta_bstar": 0.0017715524,
        "meta_mean_motion_dot": 3.588e-05,
        "meta_mean_motion_ddot": 0,
        "tle_line1": "1 36152U 99025DRZ 25346.84348533  .00003588  00000+0  17716-2 0  9997",
        "tle_line2": "2 36152  98.7561  26.6399 0055378 211.6512 148.1329 14.17249367641582"
      },
      "geometry": {
        "type": "Point",
        "coordinates": [
          118.77662657328028,
          -81.23765599530432
        ]
      }
    },
    {
      "type": "Feature",
      "properties": {
        "norad_id": 36160,
        "name": "FENGYUN 1C DEB",
        "group": "fengyun-1c-debris",
        "lat": 67.8265028589613,
        "lon": 169.1742574290869,
        "alt_km": 821.4972998874855,
        "timestamp": "2025-12-14T05:42:18.748314+00:00",
        "meta_object_name": "FENGYUN 1C DEB",
        "meta_object_id": "1999-025DSH",
        "meta_epoch": "2025-12-12T19:23:25.399104",
        "meta_mean_motion": 14.13217835,
        "meta_eccentricity": 0.0135077,
        "meta_inclination": 98.1387,
        "meta_ra_of_asc_node": 188.429,
        "meta_arg_of_pericenter": 152.2609,
        "meta_mean_anomaly": 208.5855,
        "meta_ephemeris_type": 0,
        "meta_classification_type": "U",
        "meta_norad_cat_id": 36160,
        "meta_element_set_no": 999,
        "meta_rev_at_epoch": 60053,
        "meta_bstar": 0.00034837814,
        "meta_mean_motion_dot": 6.74e-06,
        "meta_mean_motion_ddot": 0,
        "tle_line1": "1 36160U 99025DSH 25346.80793286  .00000674  00000+0  34838-3 0  9999",
        "tle_line2": "2 36160  98.1387 188.4290 0135077 152.2609 208.5855 14.13217835600536"
      },
      "geometry": {
        "type": "Point",
        "coordinates": [
          169.1742574290869,
          67.8265028589613
        ]
      }
    }
  ]
}